{"type":"FeatureCollection","crs":{"type":"name","properties":{"name":"EPSG:4326"}},"features":[{"type":"Feature","id":5433,"geometry":{"type":"Polygon","coordinates":[[[15.39569,60.4926],[15.40246,60.49525],[15.40537,60.49417],[15.40628,60.49363],[15.40681,60.49313],[15.40809,60.49147],[15.40175,60.4903],[15.39955,60.49092],[15.39646,60.49219],[15.39569,60.4926]]]},"properties":{"OBJECTID_1":5433,"Valdistrik":"20810124","Valdistr_1":"Tjärna Allé","Valdistr_2":"Tjärna Allé  (Borlänge)","Röstberättigade":1058,"Röstande":625,"And_rösta":59.073724007561438,"A_29_år":317,"A_65__år":156,"A_TOTålde":992,"IN_kvi1":392,"IN_kvi5":11,"IN_TOTinko":770,"UTB_Lång_":49,"UTB_TOTutb":925,"Fo_Utrikes":765,"FO_TOTföd":992,"Andel_M":3.3980582524271843,"Andel_C":1.6181229773462782,"Andel_L":0.48543689320388345,"Andel_KD":0.97087378640776689,"Andel_MP":7.6051779935275077,"Andel_S":67.961165048543691,"Andel_V":8.89967637540453,"Andel_SD":6.9579288025889969,"Andel_ÖVR":2.1035598705501619,"And_M_Helt":3,"And_C_Helt":2,"And_L_Helt":0,"And_KD_Hel":1,"And_MP_Hel":8,"And_S_Helt":68,"And_V_Helt":9,"And_SD_Hel":7,"And_ÖVR_H":2,"ObjectID":5485,"Kommun":"2081","KommunNamn":"Borlänge","And_röst_Heltal":59,"Shape__Area":214079.22045898438,"Shape__Length":1808.5089165492222}},{"type":"Feature","id":3244,"geometry":{"type":"Polygon","coordinates":[[[13.00688,55.59157],[13.00841,55.59127],[13.0089,55.59242],[13.0116,55.59202],[13.01087,55.59079],[13.01274,55.59042],[13.01244,55.58982],[13.01019,55.59023],[13.00662,55.59084],[13.00649,55.59091],[13.00688,55.59157]]]},"properties":{"OBJECTID_1":3244,"Valdistrik":"12800222","Valdistr_1":"Möllevångstorget S","Valdistr_2":"Möllevångstorget S  (Malmö)","Röstberättigade":1197,"Röstande":856,"And_rösta":71.51211361737677,"A_29_år":290,"A_65__år":84,"A_TOTålde":1079,"IN_kvi1":347,"IN_kvi5":103,"IN_TOTinko":962,"UTB_Lång_":427,"UTB_TOTutb":1066,"Fo_Utrikes":249,"FO_TOTföd":1079,"Andel_M":3.7647058823529407,"Andel_C":2.9411764705882351,"Andel_L":2.7058823529411762,"Andel_KD":0.47058823529411759,"Andel_MP":16.941176470588236,"Andel_S":19.764705882352938,"Andel_V":44.588235294117645,"Andel_SD":6.9411764705882355,"Andel_ÖVR":1.8823529411764703,"And_M_Helt":4,"And_C_Helt":3,"And_L_Helt":3,"And_KD_Hel":0,"And_MP_Hel":17,"And_S_Helt":20,"And_V_Helt":45,"And_SD_Hel":7,"And_ÖVR_H":2,"ObjectID":2996,"Kommun":"1280","KommunNamn":"Malmö","And_röst_Heltal":72,"Shape__Area":52922.8095703125,"Shape__Length":1219.6877226074139}},{"type":"Feature","id":3431,"geometry":{"type":"Polygon","coordinates":[[[13.27185,56.21545],[13.27258,56.21565],[13.2727,56.21623],[13.2736,56.21623],[13.27386,56.2163],[13.27442,56.21656],[13.27504,56.21703],[13.27628,56.21763],[13.27624,56.21777],[13.27674,56.21793],[13.27773,56.21792],[13.27797,56.218],[13.27811,56.21859],[13.27805,56.21898],[13.27836,56.21945],[13.27687,56.22049],[13.27628,56.22181],[13.27723,56.22308],[13.27944,56.22552],[13.28511,56.22867],[13.28836,56.23016],[13.29012,56.23074],[13.29251,56.23127],[13.29289,56.23171],[13.29469,56.23283],[13.29492,56.23332],[13.30014,56.23639],[13.30773,56.23981],[13.31634,56.24627],[13.3214,56.24596],[13.32816,56.25131],[13.34581,56.26776],[13.34749,56.2693],[13.3841,56.26773],[13.41794,56.26596],[13.42502,56.25394],[13.42663,56.2518],[13.42762,56.25017],[13.43062,56.24763],[13.43956,56.23949],[13.4432,56.23895],[13.44333,56.2388],[13.44343,56.23604],[13.44435,56.23518],[13.46034,56.21723],[13.46059,56.21459],[13.46643,56.21051],[13.45132,56.19212],[13.4531,56.18455],[13.45411,56.17446],[13.45046,56.174],[13.45044,56.17412],[13.4497,56.17366],[13.44821,56.17304],[13.44774,56.17261],[13.44699,56.17228],[13.44662,56.17199],[13.44607,56.17133],[13.44603,56.17102],[13.4467,56.17059],[13.44689,56.17021],[13.44747,56.16964],[13.44786,56.16842],[13.44294,56.16842],[13.44093,56.1683],[13.44296,56.17127],[13.4415,56.17161],[13.43895,56.16939],[13.43833,56.16923],[13.43806,56.1704],[13.43772,56.17081],[13.43672,56.17119],[13.43398,56.17093],[13.43242,56.16991],[13.42641,56.16872],[13.42557,56.16983],[13.42537,56.1711],[13.41969,56.17237],[13.41826,56.17163],[13.4245,56.16731],[13.40807,56.16634],[13.39693,56.17476],[13.38423,56.1851],[13.3802,56.17211],[13.38082,56.17216],[13.38123,56.17209],[13.38145,56.17199],[13.38144,56.17185],[13.38184,56.17184],[13.38203,56.17173],[13.38218,56.17139],[13.38207,56.1699],[13.38189,56.16992],[13.38166,56.16972],[13.38082,56.16956],[13.38062,56.16957],[13.38057,56.16972],[13.38032,56.16956],[13.37989,56.16978],[13.37907,56.16971],[13.37889,56.16952],[13.37908,56.16948],[13.37886,56.16942],[13.3788,56.16916],[13.37818,56.16949],[13.37785,56.16942],[13.37788,56.16917],[13.37754,56.16925],[13.37717,56.16919],[13.37674,56.16938],[13.37618,56.16907],[13.37631,56.16888],[13.37573,56.16904],[13.37568,56.16915],[13.37546,56.16906],[13.37529,56.16917],[13.375,56.16916],[13.37501,56.16897],[13.37475,56.16905],[13.37447,56.16891],[13.37432,56.16892],[13.37413,56.16915],[13.3739,56.16905],[13.37327,56.1691],[13.37321,56.16919],[13.37367,56.16932],[13.37366,56.16943],[13.37318,56.16936],[13.37292,56.16949],[13.37244,56.16944],[13.37182,56.16975],[13.37155,56.16978],[13.37093,56.16964],[13.37069,56.16977],[13.36951,56.16988],[13.36882,56.16962],[13.36871,56.16963],[13.36868,56.16986],[13.3685,56.16991],[13.36791,56.16897],[13.36815,56.1685],[13.36826,56.16766],[13.36878,56.16656],[13.37084,56.16095],[13.36613,56.15706],[13.34935,56.1525],[13.34283,56.15018],[13.33314,56.15065],[13.31928,56.15114],[13.31928,56.15129],[13.31751,56.15134],[13.31722,56.15154],[13.31646,56.15179],[13.31458,56.15286],[13.31321,56.15317],[13.31218,56.15294],[13.31199,56.15297],[13.31027,56.15438],[13.31141,56.15469],[13.31164,56.15484],[13.3118,56.15519],[13.31148,56.15546],[13.31098,56.15559],[13.31102,56.15613],[13.31127,56.15637],[13.31301,56.15744],[13.31332,56.15892],[13.31412,56.15953],[13.31556,56.16037],[13.31634,56.161],[13.31617,56.16171],[13.31573,56.16203],[13.31563,56.16422],[13.31542,56.16449],[13.31349,56.16451],[13.31274,56.16441],[13.30997,56.16287],[13.30882,56.16246],[13.30682,56.16896],[13.30588,56.16951],[13.30535,56.17008],[13.30516,56.17057],[13.30445,56.17104],[13.30316,56.17126],[13.30301,56.17137],[13.30253,56.17141],[13.3005,56.17112],[13.2976,56.17107],[13.29593,56.17166],[13.29527,56.17229],[13.28,56.17513],[13.26511,56.18356],[13.27841,56.19549],[13.27554,56.2037],[13.27346,56.21097],[13.27343,56.2116],[13.27253,56.21267],[13.27251,56.2131],[13.27217,56.21354],[13.27203,56.21403],[13.27185,56.21545]]]},"properties":{"OBJECTID_1":3431,"Valdistrik":"12750103","Valdistr_1":"Oderljunga","Valdistr_2":"Oderljunga  (Perstorp)","Röstberättigade":785,"Röstande":622,"And_rösta":79.235668789808926,"A_29_år":88,"A_65__år":235,"A_TOTålde":777,"IN_kvi1":150,"IN_kvi5":123,"IN_TOTinko":741,"UTB_Lång_":93,"UTB_TOTutb":774,"Fo_Utrikes":45,"FO_TOTföd":777,"Andel_M":13.5702746365105,"Andel_C":6.30048465266559,"Andel_L":1.1308562197092082,"Andel_KD":6.78513731825525,"Andel_MP":3.0694668820678515,"Andel_S":14.378029079159935,"Andel_V":1.2924071082390953,"Andel_SD":52.988691437802906,"Andel_ÖVR":0.48465266558966075,"And_M_Helt":14,"And_C_Helt":6,"And_L_Helt":1,"And_KD_Hel":7,"And_MP_Hel":3,"And_S_Helt":14,"And_V_Helt":1,"And_SD_Hel":53,"And_ÖVR_H":0,"ObjectID":2904,"Kommun":"1275","KommunNamn":"Perstorp","And_röst_Heltal":79,"Shape__Area":109198296.73193359,"Shape__Length":50066.738748466465}},{"type":"Feature","id":76,"geometry":{"type":"Polygon","coordinates":[[[18.0568,59.39563],[18.05826,59.39713],[18.0582,59.39734],[18.05843,59.39761],[18.05922,59.39818],[18.06056,59.39859],[18.06328,59.39875],[18.07944,59.39426],[18.08074,59.3933],[18.08161,59.39288],[18.07865,59.39124],[18.0771,59.39078],[18.08108,59.38891],[18.08257,59.38837],[18.08689,59.3891],[18.09374,59.38781],[18.09246,59.38654],[18.0881,59.38222],[18.08013,59.38611],[18.07845,59.38697],[18.07729,59.38771],[18.07595,59.38821],[18.07313,59.38951],[18.07277,59.38945],[18.06576,59.39209],[18.06272,59.39296],[18.06131,59.39367],[18.05861,59.39471],[18.0568,59.39563]]]},"properties":{"OBJECTID_1":76,"Valdistrik":"01620116","Valdistr_1":"Södra Djursholm","Valdistr_2":"Södra Djursholm  (Danderyd)","Röstberättigade":1034,"Röstande":904,"And_rösta":87.4274661508704,"A_29_år":193,"A_65__år":255,"A_TOTålde":956,"IN_kvi1":171,"IN_kvi5":464,"IN_TOTinko":847,"UTB_Lång_":518,"UTB_TOTutb":946,"Fo_Utrikes":106,"FO_TOTföd":956,"Andel_M":58.425720620842569,"Andel_C":6.7627494456762749,"Andel_L":9.8669623059866964,"Andel_KD":8.2039911308204,"Andel_MP":2.106430155210643,"Andel_S":3.325942350332594,"Andel_V":1.1086474501108647,"Andel_SD":9.75609756097561,"Andel_ÖVR":0.44345898004434592,"And_M_Helt":58,"And_C_Helt":7,"And_L_Helt":10,"And_KD_Hel":8,"And_MP_Hel":2,"And_S_Helt":3,"And_V_Helt":1,"And_SD_Hel":10,"And_ÖVR_H":0,"ObjectID":435,"Kommun":"0162","KommunNamn":"Danderyd","And_röst_Heltal":87,"Shape__Area":1198241.890625,"Shape__Length":6287.8332777884634}}]}